1 23953U 96041A   15152.12478653  .00000084  00000-0  00000+0 0  9993
2 23953  53.9337 190.6645 0145197  52.8243  13.9730  2.00561604138319
